ONEWEB-0572             
1 55151U 23004M   26154.62300522  .00000005  00000+0 -19298-4 0  9992
2 55151  87.9142   8.5642 0001806  92.9843 267.1496 13.17647674165693
ONEWEB-0573             
1 55152U 23004N   26154.53307618  .00000064  00000+0  12931-3 0  9996
2 55152  87.9160 338.1881 0001643 120.7966 239.3328 13.18687485167890
ONEWEB-0588             
1 55153U 23004P   26154.52632389  .00000076  00000+0  16092-3 0  9997
2 55153  87.9166 338.1914 0002124 102.2763 257.8607 13.18688238167891
ONEWEB-0598             
1 55154U 23004Q   26153.66386580 -.00000509  00000+0 -14734-2 0  9994
2 55154  87.8893  23.9592 0001159  97.6771 262.4489 13.11416091163998
ONEWEB-0599             
1 55155U 23004R   26154.58419726  .00000077  00000+0  16465-3 0  9998
2 55155  87.9143   8.5705 0001636  81.3534 278.7783 13.17648199165698
ONEWEB-0614             
1 55156U 23004S   26154.65063750 -.00000226  00000+0 -67261-3 0  9997
2 55156  87.8896  23.7718 0002023  83.5135 276.6223 13.11415694164060
ONEWEB-0616             
1 55157U 23004T   26154.62639533 -.00000028  00000+0 -10500-3 0  9997
2 55157  87.9139   8.5655 0001471  50.6094 309.5168 13.17649644165917
ONEWEB-0617             
1 55158U 23004U   26154.63878139  .00000337  00000+0  91429-3 0  9996
2 55158  87.8902  23.7644 0002204  90.4969 269.6412 13.11414978164089
ONEWEB-0618             
1 55159U 23004V   26154.56714060  .00004502  00000+0  25271-3 0  9991
2 55159  86.9096 183.1641 0011405 358.7074   1.4134 15.13032092180204
ONEWEB-0619             
1 55160U 23004W   26154.58252198 -.00000035  00000+0 -12453-3 0  9991
2 55160  87.9137   8.5534 0002185  78.3861 281.7516 13.17650051165807
ONEWEB-0620             
1 55161U 23004X   26154.63369060  .00000457  00000+0  12545-2 0  9992
2 55161  87.8897  23.7746 0001727  93.0916 267.0410 13.11416444164056
ONEWEB-0621             
1 55162U 23004Y   26154.58450963 -.00000468  00000+0 -13563-2 0  9995
2 55162  87.8913  23.7733 0002036  86.3322 273.8039 13.11416672164024
ONEWEB-0622             
1 55163U 23004Z   26154.58959894 -.00000405  00000+0 -11785-2 0  9998
2 55163  87.8915  23.7737 0002505 104.8342 255.3064 13.11417321164014
ONEWEB-0623             
1 55164U 23004AA  26154.57745334  .00000101  00000+0  22739-3 0  9993
2 55164  87.9146   8.5871 0002565  84.1867 275.9557 13.17648786165798
ONEWEB-0624             
1 55165U 23004AB  26154.55348202  .00000091  00000+0  21545-3 0  9997
2 55165  87.8960 353.3011 0001798  82.9083 277.2250 13.12926786166286
ONEWEB-0625             
1 55166U 23004AC  26154.64327127  .00000087  00000+0  19012-3 0  9992
2 55166  87.9144   8.5692 0001754  80.8512 279.2818 13.17649827165792
ONEWEB-0626             
1 55167U 23004AD  26154.63315224  .00000040  00000+0  68618-4 0  9993
2 55167  87.9139   8.5702 0001582  98.1713 261.9598 13.17650597165792
ONEWEB-0627             
1 55168U 23004AE  26154.62132707 -.00000036  00000+0 -12657-3 0  9994
2 55168  87.9140   8.5747 0002388  70.0726 290.0663 13.17648455165798
ONEWEB-0628             
1 55169U 23004AF  26154.52987527  .00000309  00000+0  82458-3 0  9999
2 55169  87.8948 353.3696 0002482  85.2463 274.8949 13.12444315166241
ONEWEB-0629             
1 55170U 23004AG  26154.59685842  .00000013  00000+0 -85583-6 0  9991
2 55170  87.9147   8.5744 0001990  74.3506 285.7845 13.17650703165798
ONEWEB-0631             
1 55171U 23004AH  26154.51957921  .00000038  00000+0  64316-4 0  9999
2 55171  87.9167 338.1554 0001909 105.7027 254.4316 13.18688297167876
ONEWEB-0709             
1 55172U 23004AJ  26154.62351968  .00000464  00000+0  12739-2 0  9994
2 55172  87.8895  23.7791 0001141 108.2471 251.8781 13.11418413164095
ONEWEB-0710             
1 55173U 23004AK  26154.61120679  .00000047  00000+0  88416-4 0  9991
2 55173  87.9141   8.5671 0002016  95.0343 265.1019 13.17650637165794
ONEWEB-0711             
1 55174U 23004AL  26154.59470178 -.00000394  00000+0 -11465-2 0  9996
2 55174  87.8901  23.7716 0002514  89.5616 270.5800 13.11419007164055
ONEWEB-0713             
1 55175U 23004AM  26154.61334843  .00000435  00000+0  11926-2 0  9994
2 55175  87.8903  23.7701 0002243  91.3782 268.7603 13.11419109164048
ONEWEB-0715             
1 55176U 23004AN  26154.60826134  .00000190  00000+0  49901-3 0  9996
2 55176  87.8900  23.7713 0001629 107.1323 252.9984 13.11418866164083
ONEWEB-0716             
1 55177U 23004AP  26154.60445630  .00000065  00000+0  13540-3 0  9996
2 55177  87.9145   8.5706 0001685  80.3266 279.8056 13.17650860165794
ONEWEB-0717             
1 55178U 23004AQ  26154.58757744  .00000072  00000+0  15256-3 0  9990
2 55178  87.9153   8.5604 0002335  96.8716 263.2681 13.17652453165843
ONEWEB-0719             
1 55179U 23004AR  26154.59770888  .00000061  00000+0  12447-3 0  9993
2 55179  87.9151   8.5387 0001865  81.7481 278.3862 13.17650576165795
ONEWEB-0530             
1 55796U 23029A   26154.60522184  .00000088  00000+0  18477-3 0  9999
2 55796  87.9178 277.1775 0002382  97.0009 263.1396 13.20770593159350
