OBJECT_NAME,OBJECT_ID,EPOCH,MEAN_MOTION,ECCENTRICITY,INCLINATION,RA_OF_ASC_NODE,ARG_OF_PERICENTER,MEAN_ANOMALY,EPHEMERIS_TYPE,CLASSIFICATION_TYPE,NORAD_CAT_ID,ELEMENT_SET_NO,REV_AT_EPOCH,BSTAR,MEAN_MOTION_DOT,MEAN_MOTION_DDOT
ONEWEB-0572,2023-004M,2026-06-03T14:57:07.651008,13.17647674,.00018065,87.9142,8.5642,92.9843,267.1496,0,U,55151,999,16569,-.19297972E-4,.5E-7,0
ONEWEB-0573,2023-004N,2026-06-03T12:47:37.781952,13.18687485,.00016433,87.9160,338.1881,120.7966,239.3328,0,U,55152,999,16789,.12930887E-3,.64E-6,0
ONEWEB-0588,2023-004P,2026-06-03T12:37:54.384096,13.18688238,.00021243,87.9166,338.1914,102.2763,257.8607,0,U,55153,999,16789,.16092179E-3,.76E-6,0
ONEWEB-0598,2023-004Q,2026-06-02T15:55:58.005120,13.11416091,.00011591,87.8893,23.9592,97.6771,262.4489,0,U,55154,999,16399,-.14734335E-2,-.509E-5,0
ONEWEB-0599,2023-004R,2026-06-03T14:01:14.643264,13.17648199,.00016361,87.9143,8.5705,81.3534,278.7783,0,U,55155,999,16569,.16465225E-3,.77E-6,0
ONEWEB-0614,2023-004S,2026-06-03T15:36:55.080000,13.11415694,.00020232,87.8896,23.7718,83.5135,276.6223,0,U,55156,999,16406,-.67260891E-3,-.226E-5,0
ONEWEB-0616,2023-004T,2026-06-03T15:02:00.556512,13.17649644,.00014711,87.9139,8.5655,50.6094,309.5168,0,U,55157,999,16591,-.10500168E-3,-.28E-6,0
ONEWEB-0617,2023-004U,2026-06-03T15:19:50.712096,13.11414978,.00022043,87.8902,23.7644,90.4969,269.6412,0,U,55158,999,16408,.91429042E-3,.337E-5,0
ONEWEB-0618,2023-004V,2026-06-03T13:36:40.947840,15.13032092,.00114058,86.9096,183.1641,358.7074,1.4134,0,U,55159,999,18020,.25271223E-3,.4502E-4,0
ONEWEB-0619,2023-004W,2026-06-03T13:58:49.899072,13.17650051,.00021851,87.9137,8.5534,78.3861,281.7516,0,U,55160,999,16580,-.12453454E-3,-.35E-6,0
ONEWEB-0620,2023-004X,2026-06-03T15:12:30.867840,13.11416444,.00017271,87.8897,23.7746,93.0916,267.0410,0,U,55161,999,16405,.12544698E-2,.457E-5,0
ONEWEB-0621,2023-004Y,2026-06-03T14:01:41.632032,13.11416672,.00020363,87.8913,23.7733,86.3322,273.8039,0,U,55162,999,16402,-.13562541E-2,-.468E-5,0
ONEWEB-0622,2023-004Z,2026-06-03T14:09:01.348416,13.11417321,.00025059,87.8915,23.7737,104.8342,255.3064,0,U,55163,999,16401,-.1178484E-2,-.405E-5,0
ONEWEB-0623,2023-004AA,2026-06-03T13:51:31.968576,13.17648786,.00025655,87.9146,8.5871,84.1867,275.9557,0,U,55164,999,16579,.22739013E-3,.101E-5,0
ONEWEB-0624,2023-004AB,2026-06-03T13:17:00.846528,13.12926786,.00017984,87.8960,353.3011,82.9083,277.2250,0,U,55165,999,16628,.21545228E-3,.91E-6,0
ONEWEB-0625,2023-004AC,2026-06-03T15:26:18.637728,13.17649827,.00017541,87.9144,8.5692,80.8512,279.2818,0,U,55166,999,16579,.19011777E-3,.87E-6,0
ONEWEB-0626,2023-004AD,2026-06-03T15:11:44.353536,13.17650597,.00015826,87.9139,8.5702,98.1713,261.9598,0,U,55167,999,16579,.68617603E-4,.4E-6,0
ONEWEB-0627,2023-004AE,2026-06-03T14:54:42.658848,13.17648455,.00023885,87.9140,8.5747,70.0726,290.0663,0,U,55168,999,16579,-.1265658E-3,-.36E-6,0
ONEWEB-0628,2023-004AF,2026-06-03T12:43:01.223328,13.12444315,.00024823,87.8948,353.3696,85.2463,274.8949,0,U,55169,999,16624,.82457672E-3,.309E-5,0
ONEWEB-0629,2023-004AG,2026-06-03T14:19:28.567488,13.17650703,.000199,87.9147,8.5744,74.3506,285.7845,0,U,55170,999,16579,-.855833E-6,.13E-6,0
ONEWEB-0631,2023-004AH,2026-06-03T12:28:11.643744,13.18688297,.0001909,87.9167,338.1554,105.7027,254.4316,0,U,55171,999,16787,.6431642E-4,.38E-6,0
ONEWEB-0709,2023-004AJ,2026-06-03T14:57:52.100352,13.11418413,.00011412,87.8895,23.7791,108.2471,251.8781,0,U,55172,999,16409,.12738965E-2,.464E-5,0
ONEWEB-0710,2023-004AK,2026-06-03T14:40:08.266656,13.17650637,.0002016,87.9141,8.5671,95.0343,265.1019,0,U,55173,999,16579,.88415615E-4,.47E-6,0
ONEWEB-0711,2023-004AL,2026-06-03T14:16:22.233792,13.11419007,.00025143,87.8901,23.7716,89.5616,270.5800,0,U,55174,999,16405,-.11465128E-2,-.394E-5,0
ONEWEB-0713,2023-004AM,2026-06-03T14:43:13.304352,13.11419109,.0002243,87.8903,23.7701,91.3782,268.7603,0,U,55175,999,16404,.11925775E-2,.435E-5,0
ONEWEB-0715,2023-004AN,2026-06-03T14:35:53.779776,13.11418866,.00016294,87.8900,23.7713,107.1323,252.9984,0,U,55176,999,16408,.49901039E-3,.19E-5,0
ONEWEB-0716,2023-004AP,2026-06-03T14:30:25.024320,13.17650860,.00016854,87.9145,8.5706,80.3266,279.8056,0,U,55177,999,16579,.13540317E-3,.65E-6,0
ONEWEB-0717,2023-004AQ,2026-06-03T14:06:06.690816,13.17652453,.00023354,87.9153,8.5604,96.8716,263.2681,0,U,55178,999,16584,.15256468E-3,.72E-6,0
ONEWEB-0719,2023-004AR,2026-06-03T14:20:42.047232,13.17650576,.00018657,87.9151,8.5387,81.7481,278.3862,0,U,55179,999,16579,.12446586E-3,.61E-6,0
ONEWEB-0530,2023-029A,2026-06-03T14:31:31.166976,13.20770593,.00023828,87.9178,277.1775,97.0009,263.1396,0,U,55796,999,15935,.18476713E-3,.88E-6,0
